STARLINK-35776          
1 66282U 25247T   26166.11991873  .00027516  00000+0  82251-3 0  9995
2 66282  53.1607  98.6817 0001290 101.1221 258.9927 15.34400282 35950
STARLINK-35774          
1 66283U 25247U   26166.12833749  .00023401  00000+0  70164-3 0  9993
2 66283  53.1610  98.7325 0000945  84.9767 275.1343 15.34396343 35954
STARLINK-35830          
1 66284U 25247V   26163.14204424  .00024369  00000+0  83212-3 0  9997
2 66284  53.1577 112.7960 0001242  84.3060 275.8082 15.30203674 35496
STARLINK-35819          
1 66285U 25247W   26166.07593549  .00015432  00000+0  53202-3 0  9999
2 66285  53.1616  99.1112 0001424  81.9214 278.1948 15.30202653 35947
STARLINK-35783          
1 66286U 25247X   26166.13702708  .00018022  00000+0  61888-3 0  9993
2 66286  53.1594  98.7835 0001195  67.0496 293.0631 15.30212831 35957
STARLINK-34884          
1 66287U 25247Y   26166.12364345  .00012715  00000+0  38683-3 0  9994
2 66287  53.1602  97.2841 0001768  54.8604 305.2564 15.34398531 35979
STARLINK-34896          
1 66288U 25247Z   26166.11943294  .00020911  00000+0  62827-3 0  9994
2 66288  53.1589  97.2564 0001100 100.8659 259.2467 15.34401266 35978
STARLINK-35802          
1 66289U 25247AA  26165.98284853  .00024455  00000+0  73249-3 0  9995
2 66289  53.1584  97.8276 0001239 110.2850 249.8285 15.34402816 35954
STARLINK-35799          
1 66290U 25247AB  26166.10890991  .00026656  00000+0  79715-3 0  9997
2 66290  53.1586  97.1888 0001150  88.8565 271.2570 15.34403900 36025
STARLINK-35800          
1 66291U 25247AC  26166.09838860  .00022880  00000+0  68600-3 0  9999
2 66291  53.1589  97.1233 0000978  94.8513 265.2602 15.34410178 36013
STARLINK-35798          
1 66292U 25247AD  26166.10258914  .00016886  00000+0  51036-3 0  9992
2 66292  53.1586  97.1442 0001263  43.2396 316.8706 15.34364166 35964
STARLINK-35442          
1 66319U 25253A   26164.89225419  .00018848  00000+0  69240-3 0  9993
2 66319  43.0117  29.5447 0003774 280.2762  79.7665 15.27590916 34958
STARLINK-34616          
1 66320U 25253B   26164.90367269  .00017935  00000+0  65966-3 0  9994
2 66320  42.9990  28.7564 0001401 276.3124  83.7568 15.27579968 35043
STARLINK-34615          
1 66321U 25253C   26165.91016140  .00013938  00000+0  51484-3 0  9995
2 66321  43.0079  23.3899 0000780 272.5750  87.5013 15.27593317 35117
STARLINK-35292          
1 66322U 25253D   26165.89860161  .00016054  00000+0  59135-3 0  9996
2 66322  43.0003  23.3320 0000941 264.0281  96.0464 15.27596453 35117
STARLINK-35309          
1 66323U 25253E   26165.87433127  .00016764  00000+0  61697-3 0  9997
2 66323  42.9965  23.9973 0003696 277.4593  82.5839 15.27595331 35106
STARLINK-35506          
1 66324U 25253F   26165.88832055  .00015671  00000+0  57749-3 0  9991
2 66324  43.0033  23.2481 0001424 279.4438  80.6253 15.27595883 35111
STARLINK-35504          
1 66325U 25253G   26165.87690446  .00015083  00000+0  55619-3 0  9998
2 66325  43.0047  24.0261 0004000 282.2928  77.7476 15.27595237 35107
STARLINK-35479          
1 66326U 25253H   26165.32938651  .00022236  00000+0  81474-3 0  9998
2 66326  43.0064  26.7919 0004127 263.2421  96.7961 15.27590320 35022
STARLINK-35507          
1 66327U 25253J   26165.30753358  .00019646  00000+0  72085-3 0  9995
2 66327  42.9881  26.6255 0002867 285.7668  74.2867 15.27608891 35020
STARLINK-35460          
1 66328U 25253K   26163.90760024  .00000612  00000+0  31801-4 0  9993
2 66328  43.0166  35.0557 0004612 291.8247  68.2114 15.27578541 34800
STARLINK-35505          
1 66329U 25253L   26165.91402304  .00015191  00000+0  56027-3 0  9995
2 66329  43.0063  23.4398 0000759 272.6360  87.4405 15.27587508 35116
STARLINK-35512          
1 66330U 25253M   26165.86276892  .00024732  00000+0  90390-3 0  9994
2 66330  43.0005  23.9192 0001669 269.8218  90.2442 15.27629312 35104
STARLINK-35257          
1 66331U 25253N   26165.89217434  .00025701  00000+0  93947-3 0  9993
2 66331  43.0030  23.2726 0000833 282.2142  77.8617 15.27606526 35114
STARLINK-35322          
1 66332U 25253P   26165.90245447  .00023558  00000+0  86312-3 0  9997
2 66332  43.0019  23.3566 0001618 259.1478 100.9192 15.27570170 35113
STARLINK-35400          
1 66333U 25253Q   26165.88204504  .00019898  00000+0  73041-3 0  9991
2 66333  42.9983  24.0593 0002108 265.4103  94.6508 15.27590332 35101
STARLINK-35407          
1 66334U 25253R   26165.89474620  .00022139  00000+0  81110-3 0  9999
2 66334  43.0115  23.3000 0000859 255.4456 104.6300 15.27601403 35112
STARLINK-35417          
1 66335U 25253S   26165.32811469  .00023072  00000+0  84519-3 0  9997
2 66335  43.0061  26.7848 0001486 280.1234  79.9450 15.27585477 35028
STARLINK-35404          
1 66336U 25253T   26165.90759529  .00017284  00000+0  63585-3 0  9998
2 66336  43.0060  23.3874 0000741 282.4020  77.6749 15.27594409 35112
STARLINK-34783          
1 66337U 25253U   26164.89996841  .00019446  00000+0  71418-3 0  9992
2 66337  43.0194  29.6066 0003135 289.4891  70.5622 15.27584614 34956
