OBJECT_NAME,OBJECT_ID,EPOCH,MEAN_MOTION,ECCENTRICITY,INCLINATION,RA_OF_ASC_NODE,ARG_OF_PERICENTER,MEAN_ANOMALY,EPHEMERIS_TYPE,CLASSIFICATION_TYPE,NORAD_CAT_ID,ELEMENT_SET_NO,REV_AT_EPOCH,BSTAR,MEAN_MOTION_DOT,MEAN_MOTION_DDOT
STARLINK-35776,2025-247T,2026-06-15T02:52:40.978272,15.34400282,.000129,53.1607,98.6817,101.1221,258.9927,0,U,66282,999,3595,.82251E-3,.27516E-3,0
STARLINK-35774,2025-247U,2026-06-15T03:04:48.359136,15.34396343,.0000945,53.1610,98.7325,84.9767,275.1343,0,U,66283,999,3595,.70164E-3,.23401E-3,0
STARLINK-35830,2025-247V,2026-06-12T03:24:32.622336,15.30203674,.00012422,53.1577,112.7960,84.3060,275.8082,0,U,66284,999,3549,.83211749E-3,.24369E-3,0
STARLINK-35819,2025-247W,2026-06-15T01:49:20.826336,15.30202653,.0001424,53.1616,99.1112,81.9214,278.1948,0,U,66285,999,3594,.53202E-3,.15432E-3,0
STARLINK-35783,2025-247X,2026-06-15T03:17:19.139712,15.30212831,.0001195,53.1594,98.7835,67.0496,293.0631,0,U,66286,999,3595,.61888E-3,.18022E-3,0
STARLINK-34884,2025-247Y,2026-06-15T02:58:02.794080,15.34398531,.0001768,53.1602,97.2841,54.8604,305.2564,0,U,66287,999,3597,.38683E-3,.12715E-3,0
STARLINK-34896,2025-247Z,2026-06-15T02:51:59.006016,15.34401266,.00011,53.1589,97.2564,100.8659,259.2467,0,U,66288,999,3597,.62827E-3,.20911E-3,0
STARLINK-35802,2025-247AA,2026-06-14T23:35:18.112992,15.34402816,.0001239,53.1584,97.8276,110.2850,249.8285,0,U,66289,999,3595,.73249E-3,.24455E-3,0
STARLINK-35799,2025-247AB,2026-06-15T02:36:49.816224,15.34403900,.000115,53.1586,97.1888,88.8565,271.2570,0,U,66290,999,3602,.79715E-3,.26656E-3,0
STARLINK-35800,2025-247AC,2026-06-15T02:21:40.775040,15.34410178,.0000978,53.1589,97.1233,94.8513,265.2602,0,U,66291,999,3601,.686E-3,.2288E-3,0
STARLINK-35798,2025-247AD,2026-06-15T02:27:43.701696,15.34364166,.0001263,53.1586,97.1442,43.2396,316.8706,0,U,66292,999,3596,.51036E-3,.16886E-3,0
STARLINK-35442,2025-253A,2026-06-13T21:24:50.762016,15.27590916,.0003774,43.0117,29.5447,280.2762,79.7665,0,U,66319,999,3495,.6924E-3,.18848E-3,0
STARLINK-34616,2025-253B,2026-06-13T21:41:17.320416,15.27579968,.0001401,42.9990,28.7564,276.3124,83.7568,0,U,66320,999,3504,.65966E-3,.17935E-3,0
STARLINK-34615,2025-253C,2026-06-14T21:50:37.944960,15.27593317,.000078,43.0079,23.3899,272.5750,87.5013,0,U,66321,999,3511,.51484E-3,.13938E-3,0
STARLINK-35292,2025-253D,2026-06-14T21:33:59.179104,15.27596453,.0000941,43.0003,23.3320,264.0281,96.0464,0,U,66322,999,3511,.59135E-3,.16054E-3,0
STARLINK-35309,2025-253E,2026-06-14T20:59:02.221728,15.27595331,.00036969,42.9965,23.9973,277.4593,82.5839,0,U,66323,999,3510,.61697468E-3,.16764E-3,0
STARLINK-35506,2025-253F,2026-06-14T21:19:10.895520,15.27595883,.00014241,43.0033,23.2481,279.4438,80.6253,0,U,66324,999,3511,.57748876E-3,.15671E-3,0
STARLINK-35504,2025-253G,2026-06-14T21:02:44.545344,15.27595237,.00040009,43.0047,24.0261,282.2928,77.7476,0,U,66325,999,3510,.55618774E-3,.15083E-3,0
STARLINK-35479,2025-253H,2026-06-14T07:54:18.994464,15.27590320,.00041275,43.0064,26.7919,263.2421,96.7961,0,U,66326,999,3502,.81474089E-3,.22236E-3,0
STARLINK-35507,2025-253J,2026-06-14T07:22:50.901312,15.27608891,.00028677,42.9881,26.6255,285.7668,74.2867,0,U,66327,999,3502,.72084916E-3,.19646E-3,0
STARLINK-35460,2025-253K,2026-06-12T21:46:56.660736,15.27578541,.00046126,43.0166,35.0557,291.8247,68.2114,0,U,66328,999,3480,.31801254E-4,.612E-5,0
STARLINK-35505,2025-253L,2026-06-14T21:56:11.590656,15.27587508,.0000759,43.0063,23.4398,272.6360,87.4405,0,U,66329,999,3511,.56027E-3,.15191E-3,0
STARLINK-35512,2025-253M,2026-06-14T20:42:23.234688,15.27629312,.00016691,43.0005,23.9192,269.8218,90.2442,0,U,66330,999,3510,.90390436E-3,.24732E-3,0
STARLINK-35257,2025-253N,2026-06-14T21:24:43.862976,15.27606526,.00008335,43.0030,23.2726,282.2142,77.8617,0,U,66331,999,3511,.93946853E-3,.25701E-3,0
STARLINK-35322,2025-253P,2026-06-14T21:39:32.066208,15.27570170,.0001618,43.0019,23.3566,259.1478,100.9192,0,U,66332,999,3511,.86312E-3,.23558E-3,0
STARLINK-35400,2025-253Q,2026-06-14T21:10:08.691456,15.27590332,.00021083,42.9983,24.0593,265.4103,94.6508,0,U,66333,999,3510,.73041389E-3,.19898E-3,0
STARLINK-35407,2025-253R,2026-06-14T21:28:26.071680,15.27601403,.00008593,43.0115,23.3000,255.4456,104.6300,0,U,66334,999,3511,.81110173E-3,.22139E-3,0
STARLINK-35417,2025-253S,2026-06-14T07:52:29.109216,15.27585477,.00014868,43.0061,26.7848,280.1234,79.9450,0,U,66335,999,3502,.8451938E-3,.23072E-3,0
STARLINK-35404,2025-253T,2026-06-14T21:46:56.233056,15.27594409,.0000741,43.0060,23.3874,282.4020,77.6749,0,U,66336,999,3511,.63585E-3,.17284E-3,0
STARLINK-34783,2025-253U,2026-06-13T21:35:57.270624,15.27584614,.0003135,43.0194,29.6066,289.4891,70.5622,0,U,66337,999,3495,.71418E-3,.19446E-3,0
